*******************************************************************************
 Revised: Aug 19, 2022   Voyager 2 Spacecraft (interplanetary) / (Sun)     -32
                        http://www.jpl.nasa.gov/missions/voyager-2/

 BACKGROUND
   See the web-page above for information on the Voyager Mission

 TIMELINE
   1977-Aug-20  Launch from Kennedy Space Center @ 14:29 UTC
   1978-Jun     Primary receiver failed, rest of mission on backup
   1979-Jul-09  Jupiter closest-approach
   1981-Aug-25  Saturn encounter
   1986-Jan-24  First Uranus encounter
   1987         Observes Supernova 1987A
   1989-Aug-25  First Neptune encounter; begins trip outside solar system
                 below ecliptic plane
   1992-Jul-17  Last transponder tracking data
   2007-Sep-05  Crosses solar system "bow shock" boundary
   2012-Aug-13  Becomes longest operating spacecraft
   2018-Nov-15  Crossed heliopause, entered interstellar space

 SPACECRAFT TRAJECTORY:
   This trajectory is composed of two merged sections:

     #1) 1977-Aug-20 to 1989-Aug-29:
          A patched conic mission-design type trajectory in which the conics 
          were constructed to approximately match specific events (such 
          satellite encounters), providing a rough accuracy. 

     #2) 1989-Aug-29 to 2100-Jan-1 
          Refit of tracking data spanning 1989-1992 (from Neptune encounter to 
          the end of two-way coherent transponder data). Produced in 2022 by 
          R. Jacobson (former Voyager navigation) using DE440 to generate a new
          solution and long-term prediction. 

   The reconstruction done in 2022 estimated:
      - Epoch state vector
      - Constant and stochastic non-gravitational accelerations 
         (to account for the activity of three-axis attitude control system)
      - Thermal radiation from RTG power sources
      - Mismodelling of solar pressure  
      - 24 impulsive maneuvers

   Note there has been no new tracking data possible since 1992. This is a
   different issue from on-board telemetry, which continued beyond that date. 
   DSS-43 (Canberra) is the only DSN site still equipped to communicate with
   Voyager 2.

   The 2022 update refit the existing old tracking data using modern approaches
   and standards to allow consistent extrapolation to 2100.

   Formal predicted geocentric pointing uncertainty on 2030-Jan-1:
     RA +/- 4.718 arcseconds, DEC +/- 3.715 arcseconds

   This uncertainty is consistent with the new solution's difference with 
   the M05016 prediction made in 1990. 
 
   Tracking data used in 2022 solution:
     Points Type       First point            Last point       residual rms
        170   F2   31-Aug-1989 12:57:30  17-Jul-1992 20:17:00  0.137 mm/s
       1098   F3   30-Aug-1989 01:13:30  30-Oct-1992 18:05:00  0.120 mm/s
         67  SRA   31-Aug-1989 12:50:01  21-Jul-1991 19:38:58  229 m
*******************************************************************************


*******************************************************************************
Ephemeris / WWW_USER Wed Apr 22 17:16:50 2026 Pasadena, USA      / Horizons
*******************************************************************************
Target body name: Voyager 2 (spacecraft) (-32)    {source: Voyager_2_ST+refit2022_m}
Center body name: Solar System Barycenter (0)     {source: DE441}
Center-site name: BODY CENTER
*******************************************************************************
Start time      : A.D. 1979-Jul-08 00:00:00.0000 TDB
Stop  time      : A.D. 1979-Jul-12 00:00:00.0000 TDB
Step-size       : 60 minutes
*******************************************************************************
Center geodetic : 0.0, 0.0, 0.0                   {E-lon(deg),Lat(deg),Alt(km)}
Center cylindric: 0.0, 0.0, 0.0                   {E-lon(deg),Dxy(km),Dz(km)}
Center radii    : (undefined)
Output units    : KM-S
Calendar mode   : Mixed Julian/Gregorian
Output type     : GEOMETRIC cartesian states
Output format   : 3 (position, velocity, LT, range, range-rate)
Reference frame : Ecliptic of J2000.0
*******************************************************************************
JDTDB
   X     Y     Z
   VX    VY    VZ
   LT    RG    RR
*******************************************************************************
$$SOE
2444064.875000000 = A.D. 1979-Jul-10 09:00:00.0000 TDB 
 X =-5.883979510899445E+08 Y = 5.377958274537874E+08 Z = 1.088347217281204E+07
 VX=-2.649431536367477E+01 VY=-3.994631768216635E+00 VZ= 8.478241213390640E-01
 LT= 2.659229684847428E+03 RG= 7.972170036069759E+08 RR= 1.687135596422715E+01
2444064.916666667 = A.D. 1979-Jul-10 10:00:00.0000 TDB 
 X =-5.884930849777331E+08 Y = 5.377805294750838E+08 Z = 1.088660266785899E+07
 VX=-2.635445681702856E+01 VY=-4.496945623343461E+00 VZ= 8.903721406821277E-01
 LT= 2.659429627892683E+03 RG= 7.972769450239726E+08 RR= 1.643185471034974E+01
2444064.958333333 = A.D. 1979-Jul-10 11:00:00.0000 TDB 
 X =-5.885876823855790E+08 Y = 5.377635006168525E+08 Z = 1.088987625911653E+07
 VX=-2.619723328820774E+01 VY=-4.956635853048613E+00 VZ= 9.274254978001710E-01
 LT= 2.659624386301647E+03 RG= 7.973353321261122E+08 RR= 1.600828410961959E+01
2444065.000000000 = A.D. 1979-Jul-10 12:00:00.0000 TDB 
 X =-5.886816905427940E+08 Y = 5.377448896645260E+08 Z = 1.089327427158409E+07
 VX=-2.602788075163992E+01 VY=-5.376362822855496E+00 VZ= 9.595944805051004E-01
 LT= 2.659814164840759E+03 RG= 7.973922263008281E+08 RR= 1.560270833430555E+01
2444065.041666667 = A.D. 1979-Jul-10 13:00:00.0000 TDB 
 X =-5.887750736879146E+08 Y = 5.377248352094101E+08 Z = 1.089678017210186E+07
 VX=-2.585063328520800E+01 VY=-5.759088612325699E+00 VZ= 9.874558283022721E-01
 LT= 2.659999187155245E+03 RG= 7.974476945952729E+08 RR= 1.521625018629902E+01
2444065.083333333 = A.D. 1979-Jul-10 14:00:00.0000 TDB 
 X =-5.888678096940619E+08 Y = 5.377034649578316E+08 Z = 1.090037942296058E+07
 VX=-2.566885438687819E+01 VY=-6.107869923851501E+00 VZ= 1.011539936739777E+00
 LT= 2.660179685923887E+03 RG= 7.975018067647899E+08 RR= 1.484932737110995E+01
2444065.125000000 = A.D. 1979-Jul-10 15:00:00.0000 TDB 
 X =-5.889598871809115E+08 Y = 5.376808956602449E+08 Z = 1.090405930322677E+07
 VX=-2.548517319038223E+01 VY=-6.425718043366702E+00 VZ= 1.032325257978053E+00
 LT= 2.660355895602943E+03 RG= 7.975546330975976E+08 RR= 1.450184720899712E+01
2444065.166666667 = A.D. 1979-Jul-10 16:00:00.0000 TDB 
 X =-5.890513031056470E+08 Y = 5.376572334477007E+08 Z = 1.090780871910626E+07
 VX=-2.530161284797878E+01 VY=-6.715510055952148E+00 VZ= 1.050237456318226E+00
 LT= 2.660528047262734E+03 RG= 7.976062428668350E+08 RR= 1.417336104285431E+01
2444065.208333333 = A.D. 1979-Jul-10 17:00:00.0000 TDB 
 X =-5.891420607918400E+08 Y = 5.376325744168828E+08 Z = 1.091161801699713E+07
 VX=-2.511970479697508E+01 VY=-6.979937437752835E+00 VZ= 1.065651489473632E+00
 LT= 2.660696365059111E+03 RG= 7.976567032727361E+08 RR= 1.386318306267166E+01
2444065.250000000 = A.D. 1979-Jul-10 18:00:00.0000 TDB 
 X =-5.892321683405546E+08 Y = 5.376070053501694E+08 Z = 1.091547880729231E+07
 VX=-2.494058671403327E+01 VY=-7.221480808258740E+00 VZ= 1.078895322959196E+00
 LT= 2.660861063947725E+03 RG= 7.977060787573837E+08 RR= 1.357047948483695E+01
2444065.291666667 = A.D. 1979-Jul-10 19:00:00.0000 TDB 
 X =-5.893216373647549E+08 Y = 5.375806044927264E+08 Z = 1.091938380313805E+07
 VX=-2.476508433130475E+01 VY=-7.442402270660640E+00 VZ= 1.090254409174117E+00
 LT= 2.661022348320995E+03 RG= 7.977544305960834E+08 RR= 1.329433399006417E+01
2444065.333333333 = A.D. 1979-Jul-10 20:00:00.0000 TDB 
 X =-5.894104819911898E+08 Y = 5.375534423352442E+08 Z = 1.092332667582428E+07
 VX=-2.459377851226645E+01 VY=-7.644749052677533E+00 VZ= 1.099976376321026E+00
 LT= 2.661180411315080E+03 RG= 7.978018166895988E+08 RR= 1.303379468636079E+01
2444065.375000000 = A.D. 1979-Jul-10 21:00:00.0000 TDB 
 X =-5.894987180800514E+08 Y = 5.375255823701502E+08 Z = 1.092730192690513E+07
 VX=-2.442705949513327E+01 VY=-7.830363987572435E+00 VZ= 1.108275592911225E+00
 LT= 2.661335434592390E+03 RG= 7.978482914989507E+08 RR= 1.278790700812257E+01
2444065.416666667 = A.D. 1979-Jul-10 22:00:00.0000 TDB 
 X =-5.895863626198279E+08 Y = 5.374970818025552E+08 Z = 1.093130477623278E+07
 VX=-2.426517030979558E+01 VY=-8.000899763948375E+00 VZ= 1.115337422547852E+00
 LT= 2.661487588452876E+03 RG= 7.978939060787799E+08 RR= 1.255573609894331E+01
2444065.458333333 = A.D. 1979-Jul-10 23:00:00.0000 TDB 
 X =-5.896734332618312E+08 Y = 5.374679922063175E+08 Z = 1.093533106460816E+07
 VX=-2.410824125441930E+01 VY=-8.157834891560386E+00 VZ= 1.121322080453057E+00
 LT= 2.661637032165176E+03 RG= 7.979387081766231E+08 RR= 1.233638145109419E+01
2444065.500000000 = A.D. 1979-Jul-11 00:00:00.0000 TDB 
 X =-5.897599479652777E+08 Y = 5.374383601216131E+08 Z = 1.093937716954848E+07
 VX=-2.395631709427174E+01 VY=-8.302490062060819E+00 VZ= 1.126368063440188E+00
 LT= 2.661783914437952E+03 RG= 7.979827423742154E+08 RR= 1.212898591686120E+01
2444065.541666667 = A.D. 1979-Jul-11 01:00:00.0000 TDB 
 X =-5.898459247293860E+08 Y = 5.374082275942078E+08 Z = 1.094343993264443E+07
 VX=-2.380937842744450E+01 VY=-8.436044061867962E+00 VZ= 1.130595161139078E+00
 LT= 2.661928373973993E+03 RG= 7.980260502536066E+08 RR= 1.193274072416638E+01
2444065.583333333 = A.D. 1979-Jul-11 02:00:00.0000 TDB 
 X =-5.899313813936398E+08 Y = 5.373776326589682E+08 Z = 1.094751659703937E+07
 VX=-2.366735835968552E+01 VY=-8.559548798609926E+00 VZ= 1.134107074845048E+00
 LT= 2.662070540066470E+03 RG= 7.980686705759145E+08 RR= 1.174688763349294E+01
2444065.625000000 = A.D. 1979-Jul-11 03:00:00.0000 TDB 
 X =-5.900163354911715E+08 Y = 5.373466097712874E+08 Z = 1.095160475368753E+07
 VX=-2.353015547981046E+01 VY=-8.673943171676603E+00 VZ= 1.136993680537406E+00
 LT= 2.662210533208638E+03 RG= 7.981106394641082E+08 RR= 1.157071914826669E+01
